P/2015 T3 (PANSTARRS),e,13.0937,120.5019,178.6330,4.326181,0.1095335,0.50818108,359.9227,12/21.0/2014,2000,g 14.0,4.0
# From MPC102953
C/2015 T4 (PANSTARRS),e,87.9623,251.7993,270.0565,80.53901,0.0013636,0.97148279,0.0000,06/17.6024/2016,2000,g 11.0,4.0
# From MPC102097
C/2015 T5 (Sheppard-Tholen),e,11.0490,311.0814,61.7907,28.05045,0.0066343,0.66729992,9.5079,12/25.0/2019,2000,g  7.5,4.0
# From MPC102953
P/2015 TO19 (Lemmon-PANSTARRS),e,6.4993,321.6425,89.2125,4.557925,0.1012869,0.35772943,140.7324,12/25.0/2019,2000,g 14.0,4.0
# From MPC110080
P/2015 TP200 (LINEAR),e,8.7729,6.9798,82.7367,7.283855,0.0501374,0.53494056,57.8302,12/25.0/2019,2000,g 11.0,4.0
# From MPC101097
C/2015 TQ209 (LINEAR),e,11.3108,223.4335,282.1054,720.0339,0.0000510,0.99803479,0.0000,08/26.5157/2016,2000,g 10.5,4.0
# From MPC115881
C/2015 V1 (PANSTARRS),e,139.2234,197.1871,179.6172,5305,0.0000026,0.99919553,0.0000,12/17.4086/2017,2000,g  6.5,4.0
# From MPC112390
C/2015 V2 (Johnson),h,06/12.2246/2017,49.8738,69.8542,164.9716,1.001829,1.640538,2000,5.0,4.0
# From MPC102953
C/2015 V3 (PANSTARRS),e,86.2389,2.2675,0.7089,627.4192,0.0000627,0.99325588,0.0000,11/24.0089/2015,2000,g  9.0,4.0
# From MPC104791
C/2015 V4 (PANSTARRS),e,60.7606,179.9110,307.0553,18.51140,0.0123750,0.70483966,15.0118,12/25.0/2019,2000,g  8.5,4.0
# From MPC115881
C/2015 VL62 (Lemmon-Yeung-PANSTARRS),h,08/28.1182/2017,165.8151,95.0894,128.7220,1.001189,2.713564,2000,8.0,4.0
# From MPC102098
C/2015 WZ (PANSTARRS),e,134.5598,40.1357,66.6527,146.4921,0.0005559,0.99059918,0.0000,04/14.1147/2016,2000,g 15.0,4.0
# From MPC109142
C/2015 W1 (Gibbs),h,05/15.6390/2016,87.3710,114.3161,48.1966,1.000227,2.240650,2000,13.0,4.0
# From MPC101098
P/2015 W2 (Catalina),e,11.6069,294.2518,117.5764,7.302173,0.0499489,0.63330433,77.2675,12/25.0/2019,2000,g 13.0,4.0
# From MPC101098
P/2015 X1 (PANSTARRS),e,12.1520,161.7757,218.9955,3.630467,0.1424821,0.41892491,219.2761,12/25.0/2019,2000,g 16.0,4.0
# From MPC118840
C/2015 XY1 (Lemmon),h,04/28.7843/2018,148.8556,281.6254,196.2889,1.004016,7.926293,2000,5.5,4.0
# From MPC100281
C/2015 X2 (Catalina),e,72.1058,101.1012,42.3729,15.84035,0.0156335,0.87840113,22.9307,12/25.0/2019,2000,g 16.0,4.0
# From MPC 97498
P/2015 X3 (PANSTARRS),e,24.3823,77.3344,306.6723,5.012364,0.0878295,0.43810982,140.6071,12/25.0/2019,2000,g 15.0,4.0
# From MPC109142
C/2015 X4 (Elenin),e,29.5006,262.6222,176.2780,17.97290,0.0129353,0.81119937,19.5781,12/25.0/2019,2000,g 10.0,4.0
# From MPC118840
C/2015 X5 (PANSTARRS),h,12/30.2975/2017,124.3076,122.3410,27.7111,1.003007,6.799955,2000,7.5,4.0
# From MPC115881
P/2015 X6 (PANSTARRS),e,4.5648,106.9472,329.8995,2.752399,0.2158426,0.17229404,295.8422,12/25.0/2019,2000,g 16.0,4.0
# From MPC109143
C/2015 X7 (ATLAS),h,07/29.6218/2016,57.5629,139.9069,348.4669,1.000351,3.685378,2000,9.0,4.0
# From MPC107048
C/2015 X8 (NEOWISE),e,155.2180,191.1480,20.4320,19.76644,0.0112153,0.93996285,17.0800,12/25.0/2019,2000,g 16.0,4.0
# From MPC109143
C/2015 Y1 (LINEAR),e,71.1764,135.8108,24.6977,257.4918,0.0002385,0.99022734,0.0000,05/14.4066/2016,2000,g 12.0,4.0
# From MPC105543
C/2015 YG1 (NEOWISE),e,57.2722,350.5185,102.5324,17.01504,0.0140428,0.87854353,21.7553,12/25.0/2019,2000,g 13.0,4.0
# From MPC118840
C/2016 A1 (PANSTARRS),h,11/23.0929/2017,121.2043,128.1991,10.2963,1.002061,5.326080,2000,6.0,4.0
# From MPC100282
P/2016 A2 (Christensen),e,26.4060,291.6165,141.6579,4.748207,0.0952598,0.27155186,156.8171,12/25.0/2019,2000,g 11.5,4.0
# From MPC115881
P/2016 A3 (PANSTARRS),e,8.5145,187.3592,340.6817,7.886149,0.0445048,0.38841206,43.1679,12/25.0/2019,2000,g 10.0,4.0
# From MPC109143
C/2016 A5 (PANSTARRS),e,40.2396,136.1639,321.5540,677.0308,0.0000559,0.99564980,0.0000,06/26.8569/2015,2000,g 13.5,4.0
# From MPC109143
C/2016 A6 (PANSTARRS),e,120.9356,300.3641,141.0830,207.5874,0.0003295,0.98840294,0.0000,11/06.2756/2015,2000,g 15.0,4.0
# From MPC102098
P/2016 A7 (PANSTARRS),e,16.6308,221.4733,352.6256,5.029991,0.0873682,0.56580799,122.1902,12/25.0/2019,2000,g 16.0,4.0
# From MPC106345
C/2016 A8 (LINEAR),e,148.2431,111.3379,130.3534,34.28184,0.0049103,0.94503057,5.9528,12/25.0/2019,2000,g 12.0,4.0
# From MPC107048
C/2016 B1 (NEOWISE),e,50.4699,231.9695,8.6601,439.5060,0.0001070,0.99269207,0.0000,12/04.8427/2016,2000,g  9.5,4.0
# From MPC109143
P/2016 BA14 (PANSTARRS),e,18.8987,180.5381,351.9125,3.023928,0.1874334,0.66531251,258.7272,12/25.0/2019,2000,g 21.0,4.0
# From MPC110494
C/2016 C1 (PANSTARRS),h,02/19.4105/2016,56.2099,181.7963,328.7862,1.002774,8.467202,2000,5.5,4.0
# From MPC101098
C/2016 C2 (NEOWISE),e,38.1007,24.4207,214.5244,65.85710,0.0018442,0.97623667,0.0000,04/19.6459/2016,2000,g 16.0,4.0
# From MPC110494
C/2016 E1 (PANSTARRS),h,06/03.8777/2017,131.8923,233.0522,47.4496,1.005256,8.179610,2000,6.5,4.0
# From MPC 99821
C/2016 E2 (Kowalski),e,135.9171,186.8088,321.9065,139.3301,0.0005993,0.99227414,0.0000,02/06.6791/2016,2000,g 20.0,4.0
# From MPC102098
P/2016 G1 (PANSTARRS),e,10.9690,204.0596,111.2979,2.582331,0.2375124,0.21087382,252.2873,12/25.0/2019,2000,g 14.0,4.0
# From MPEC 2017-D91
P/2016 J1-A (PANSTARRS),e,14.3249,199.8357,46.8432,3.174332,0.1742712,0.22823443,222.6565,12/25.0/2019,2000,g 16.5,4.0
# From MPEC 2017-A77
P/2016 J1-B (PANSTARRS),e,14.3277,199.8406,46.7344,3.173962,0.1743017,0.22808567,222.7702,12/25.0/2019,2000,g 17.0,4.0
# From MPC101099
C/2016 J2 (Denneau),e,130.3409,186.3249,318.6134,621.8454,0.0000636,0.99755365,0.0000,04/12.0173/2016,2000,g 17.0,4.0
# From MPC102099
C/2016 KA (Catalina),e,104.6748,317.5130,63.1809,4674,0.0000031,0.99884355,0.0000,02/02.0119/2016,2000,g  8.5,4.0
# From MPC104792
C/2016 K1 (LINEAR),e,90.9047,325.6381,18.2644,13015,0.0000007,0.99982382,0.0000,07/13.2585/2016,2000,g 13.0,4.0
# From MPC118840
C/2016 M1 (PANSTARRS),e,91.0007,92.2026,209.8580,3077,0.0000058,0.99928141,0.0000,08/10.2449/2018,2000,g  5.0,4.0
# From MPC115881
C/2016 N4 (MASTER),e,72.5819,354.0071,55.9417,2395,0.0000084,0.99866430,0.0000,09/16.4618/2017,2000,g  8.5,4.0
# From MPC118092
C/2016 N6 (PANSTARRS),e,105.8403,298.9853,162.7812,1932,0.0000116,0.99861920,0.0000,07/18.1480/2018,2000,g  7.0,4.0
# From MPC102099
P/2016 P1 (PANSTARRS),e,24.4530,319.5659,270.0327,3.195128,0.1725726,0.28941680,268.0163,12/25.0/2019,2000,g 15.0,4.0
# From MPC102099
C/2016 P4 (PANSTARRS),e,29.8822,320.7451,356.1271,386.9856,0.0001295,0.98477599,0.0000,10/17.6864/2016,2000,g 10.5,4.0
# From MPC118093
C/2016 Q2 (PANSTARRS),e,109.3907,322.3012,84.4790,10947,0.0000009,0.99935297,0.0000,05/11.2891/2021,2000,g  6.0,4.0
# From MPC102955
C/2016 Q4 (Kowalski),e,7.2577,271.2842,99.3876,16.88098,0.0142104,0.58027287,9.9118,12/25.0/2019,2000,g  7.0,4.0
# From MPC117069
C/2016 R2 (PANSTARRS),e,58.2247,80.5696,33.1915,593.4217,0.0000682,0.99561357,0.0000,05/09.4528/2018,2000,g  7.0,4.0
# From MPC102099
C/2016 R3 (Borisov),e,53.0445,78.6411,118.1854,200.3912,0.0003474,0.99775024,0.0000,10/10.6238/2016,2000,g 18.0,4.0
# From MPC109144
P/2016 R4 (Gibbs),e,10.8669,168.2931,173.9909,5.331826,0.0800553,0.47581207,100.2351,12/25.0/2019,2000,g 12.5,4.0
# From MPC105543
P/2016 S1 (PANSTARRS),e,94.6468,227.5157,273.2674,8.280891,0.0413608,0.71029455,41.9206,12/25.0/2019,2000,g 12.0,4.0
# From MPC105238
C/2016 T1 (Matheny),e,129.8453,56.2663,137.3733,123.0918,0.0007217,0.98129630,0.0000,02/01.3032/2017,2000,g 14.5,4.0
# From MPC107685
C/2016 T2 (Matheny),e,81.3540,339.1379,92.2595,99.19639,0.0009976,0.98077112,0.0000,12/28.9715/2016,2000,g 14.5,4.0
# From MPC110082
C/2016 T3 (PANSTARRS),e,22.6771,271.7425,194.6934,135.2513,0.0006266,0.98040119,0.0000,09/06.7073/2017,2000,g 10.5,4.0
# From MPC103847
C/2016 U1 (NEOWISE),h,01/14.0387/2017,46.4126,61.4460,162.8283,1.000391,0.321263,2000,17.0,4.0
# From MPC106345
C/2016 VZ18 (PANSTARRS),e,24.0132,98.9253,36.3984,174.0191,0.0004293,0.99475706,0.0000,03/06.6239/2017,2000,g 19.5,4.0
# From MPC106345
P/2016 WM48 (Lemmon),e,117.4242,59.9018,36.0992,8.173811,0.0421762,0.78423434,43.5881,12/25.0/2019,2000,g 15.0,4.0
# From MPC118840
C/2016 X1 (Lemmon),e,26.4551,256.4240,224.5361,1487,0.0000172,0.99491410,0.0000,04/29.3678/2019,2000,g  6.0,4.0
# From MPC108594
C/2017 A1 (PANSTARRS),e,49.7942,121.0405,2.0738,77.67977,0.0014396,0.97049029,0.0000,05/16.6350/2017,2000,g 13.0,4.0
# From MPC108594
C/2017 A3 (Elenin),e,98.5373,97.9078,304.0650,43.49666,0.0034357,0.91146233,3.6360,12/25.0/2019,2000,g  9.5,4.0
# From MPC114598
C/2017 AB5 (PANSTARRS),e,32.4331,42.6673,78.3664,3137,0.0000056,0.99706250,0.0000,02/16.7010/2018,2000,g  5.5,4.0
# From MPC118840
C/2017 B3 (LINEAR),h,02/02.6128/2019,54.1771,2.1787,284.7713,1.002006,3.921544,2000,6.0,4.0
# From MPC103847
P/2017 B4 (PANSTARRS),e,20.0584,121.4578,11.0197,4.410520,0.1064068,0.36495152,359.9130,01/05.0/2017,2000,g 14.5,4.0
# From MPC104793
C/2017 C1 (NEOWISE),e,65.7399,357.4788,110.1406,20.63199,0.0105170,0.92723732,11.2582,12/25.0/2019,2000,g 18.0,4.0
# From MPC107685
C/2017 C2 (PANSTARRS),e,118.5898,249.8161,138.6758,97.66937,0.0010211,0.97515976,0.0000,01/21.6216/2017,2000,g 14.0,4.0
# From MPC104793
P/2017 D1 (Fuls),e,20.7623,82.1759,8.1136,4.829250,0.0928719,0.43706760,118.5564,12/25.0/2019,2000,g 14.0,4.0
# From MPC112391
C/2017 D2 (Barros),e,31.2565,330.9911,334.4327,2663,0.0000072,0.99906614,0.0000,07/14.7728/2017,2000,g 11.0,4.0
# From MPC114598
C/2017 D3 (ATLAS),h,04/27.1698/2017,125.5740,186.6418,340.8439,1.001883,4.973901,2000,8.0,4.0
# From MPC110495
P/2017 D4 (PANSTARRS),e,10.5302,264.9372,212.3304,7.571378,0.0473088,0.62895164,56.9791,12/25.0/2019,2000,g 13.0,4.0
# From MPC104794
C/2017 D5 (PANSTARRS),e,131.0599,92.7367,287.8043,114.9922,0.0007993,0.98117974,0.0000,01/09.2475/2017,2000,g 16.0,4.0
# From MPC106346
C/2017 E1 (Borisov),h,04/10.4308/2017,14.5636,142.6248,152.5942,1.002943,0.900477,2000,14.0,4.0
# From MPC109144
C/2017 E2 (Tsuchinshan),e,79.0300,11.5695,89.3937,21.55072,0.0098517,0.89088252,13.0279,12/25.0/2019,2000,g 11.5,4.0
# From MPC115882
C/2017 E3 (PANSTARRS),h,06/08.2161/2017,70.6232,220.7268,334.5112,1.007225,5.936308,2000,6.5,4.0
